NORAD_CAT_ID,OBJECT_NAME,OBJECT_TYPE,EPOCH,MEAN_MOTION,ECCENTRICITY,INCLINATION,RA_OF_ASC_NODE,ARG_OF_PERICENTER,MEAN_ANOMALY,BSTAR,MEAN_MOTION_DOT,MEAN_MOTION_DDOT,TLE_LINE0,TLE_LINE1,TLE_LINE2,SEMIMAJOR_AXIS,PERIOD,APOGEE,PERIGEE,DECAYED
53432.0,STARLINK-4557,PAYLOAD,2023-09-16 05:32:22,15.08845345,0.000139,53.2166,208.6463,85.7719,274.3432,0.00022132,3.237e-05,0.0,0 STARLINK-4557,1 53432U 22097AW  23259.23081764  .00003237  00000-0  22132-3 0  9997,2 53432  53.2166 208.6463 0001390  85.7719 274.3432 15.08845345 62096,6917.864,95.437,540.691,538.767,0.0
53432.0,STARLINK-4557,PAYLOAD,2023-09-17 02:12:23,15.08842407,0.0001462,53.2172,204.7819,93.9527,266.1632,5.786e-05,6.33e-06,0.0,0 STARLINK-4557,1 53432U 22097AW  23260.09193856  .00000633  00000-0  57860-4 0  9993,2 53432  53.2172 204.7819 0001462  93.9527 266.1632 15.08842407 61741,6917.873,95.437,540.749,538.727,0.0
53432.0,STARLINK-4557,PAYLOAD,2023-09-17 06:58:32,15.08852681,0.0001426,53.2168,203.8888,91.0017,269.1138,0.00031555,4.739e-05,0.0,0 STARLINK-4557,1 53432U 22097AW  23260.29065504  .00004739  00000-0  31555-3 0  9996,2 53432  53.2168 203.8888 0001426  91.0017 269.1138 15.08852681 61777,6917.842,95.437,540.693,538.72,0.0
53432.0,STARLINK-4557,PAYLOAD,2023-09-18 02:03:10,15.08843027,0.0001579,53.2161,200.3192,83.1145,277.0027,0.00012906,1.767e-05,0.0,0 STARLINK-4557,1 53432U 22097AW  23261.08553883  .00001767  00000-0  12906-3 0  9993,2 53432  53.2161 200.3192 0001579  83.1145 277.0027 15.08843027 61895,6917.871,95.437,540.828,538.644,0.0
53432.0,STARLINK-4557,PAYLOAD,2023-09-18 05:13:56,15.08848554,0.0001566,53.2162,199.7241,86.4876,273.6295,0.00018872,2.717e-05,0.0,0 STARLINK-4557,1 53432U 22097AW  23261.21801713  .00002717  00000-0  18872-3 0  9990,2 53432  53.2162 199.7241 0001566  86.4876 273.6295 15.08848554 62390,6917.854,95.437,540.803,538.636,0.0
53432.0,STARLINK-4557,PAYLOAD,2023-09-19 05:04:43,15.08855662,0.0001566,53.2165,195.2626,94.3113,265.8058,0.00022819,3.347e-05,0.0,0 STARLINK-4557,1 53432U 22097AW  23262.21161154  .00003347  00000-0  22819-3 0  9995,2 53432  53.2165 195.2626 0001566  94.3113 265.8058 15.08855662 62065,6917.833,95.437,540.781,538.614,0.0
53432.0,STARLINK-4557,PAYLOAD,2023-09-19 19:23:11,15.08844278,0.0001771,53.2169,192.5869,83.5323,276.5871,0.00013686,1.891e-05,0.0,0 STARLINK-4557,1 53432U 22097AW  23262.80777706  .00001891  00000-0  13686-3 0  9990,2 53432  53.2169 192.5869 0001771  83.5323 276.5871 15.08844278 62152,6917.867,95.437,540.957,538.507,0.0
53432.0,STARLINK-4557,PAYLOAD,2023-09-20 12:52:27,15.08822985,0.000203,53.2166,189.316,97.5348,262.5875,-0.00018515,-3.232e-05,0.0,0 STARLINK-4557,1 53432U 22097AW  23263.53642826 -.00003232  00000-0 -18515-3 0  9994,2 53432  53.2166 189.3160 0002030  97.5348 262.5875 15.08822985 62260,6917.932,95.439,541.202,538.393,0.0
53432.0,STARLINK-4557,PAYLOAD,2023-09-20 22:24:46,15.08826064,0.0001478,53.2167,187.5322,100.7273,259.3885,-0.00029303,-4.947e-05,0.0,0 STARLINK-4557,1 53432U 22097AW  23263.93386824 -.00004947  00000-0 -29303-3 0  9992,2 53432  53.2167 187.5322 0001478 100.7273 259.3885 15.08826064 62807,6917.923,95.438,540.81,538.766,0.0
53432.0,STARLINK-4557,PAYLOAD,2023-09-21 04:46:18,15.08827087,0.0001481,53.2166,186.3426,103.6982,256.4175,-0.00021424,-3.695e-05,0.0,0 STARLINK-4557,1 53432U 22097AW  23264.19883000 -.00003695  00000-0 -21424-3 0  9994,2 53432  53.2166 186.3426 0001481 103.6982 256.4175 15.08827087 62368,6917.92,95.438,540.809,538.76,0.0
53432.0,STARLINK-4557,PAYLOAD,2023-09-21 22:15:33,15.08840886,0.0001417,53.2166,183.0728,109.4578,250.6567,0.00013971,1.936e-05,0.0,0 STARLINK-4557,1 53432U 22097AW  23264.92746806  .00001936  00000-0  13971-3 0  9999,2 53432  53.2166 183.0728 0001417 109.4578 250.6567 15.08840886 62959,6917.878,95.437,540.723,538.762,0.0
53432.0,STARLINK-4557,PAYLOAD,2023-09-22 01:26:19,15.08846769,0.0001282,53.217,182.4799,98.4394,261.6744,0.00043228,6.6e-05,0.0,0 STARLINK-4557,1 53432U 22097AW  23265.05994889  .00006600  00000-0  43228-3 0  9991,2 53432  53.2170 182.4799 0001282  98.4394 261.6744 15.08846769 62492,6917.86,95.437,540.612,538.838,0.0
53432.0,STARLINK-4557,PAYLOAD,2023-09-22 04:37:05,15.0885178,0.0001336,53.2169,181.8846,99.7595,260.3548,0.00074562,0.00011602,0.0,0 STARLINK-4557,1 53432U 22097AW  23265.19242959  .00011602  00000-0  74562-3 0  9993,2 53432  53.2169 181.8846 0001336  99.7595 260.3548 15.08851780 62995,6917.844,95.437,540.634,538.785,0.0
53432.0,STARLINK-4557,PAYLOAD,2023-09-22 22:06:20,15.08849767,0.000118,53.2163,178.6111,90.9598,269.1529,0.00021061,3.066e-05,0.0,0 STARLINK-4557,1 53432U 22097AW  23265.92106798  .00003066  00000-0  21061-3 0  9995,2 53432  53.2163 178.6111 0001180  90.9598 269.1529 15.08849767 63103,6917.851,95.437,540.532,538.899,0.0
53432.0,STARLINK-4557,PAYLOAD,2023-09-23 01:17:06,15.08855218,0.0001075,53.2164,178.0191,87.456,272.6556,0.00054666,8.426e-05,0.0,0 STARLINK-4557,1 53432U 22097AW  23266.05354715  .00008426  00000-0  54666-3 0  9996,2 53432  53.2164 178.0191 0001075  87.4560 272.6556 15.08855218 62644,6917.834,95.437,540.443,538.955,0.0
53432.0,STARLINK-4557,PAYLOAD,2023-09-23 04:27:52,15.08865155,0.0001009,53.2157,177.4226,79.8029,280.3077,0.00065621,0.00010178,0.0,0 STARLINK-4557,1 53432U 22097AW  23266.18602277  .00010178  00000-0  65621-3 0  9999,2 53432  53.2157 177.4226 0001009  79.8029 280.3077 15.08865155 63141,6917.804,95.436,540.367,538.97,0.0
53432.0,STARLINK-4557,PAYLOAD,2023-09-23 18:46:21,15.08829657,0.0001168,53.2161,174.7464,86.5611,273.5515,5.104e-05,5.24e-06,0.0,0 STARLINK-4557,1 53432U 22097AW  23266.78219048  .00000524  00000-0  51040-4 0  9990,2 53432  53.2161 174.7464 0001168  86.5611 273.5515 15.08829657 62752,6917.912,95.438,540.585,538.969,0.0
53432.0,STARLINK-4557,PAYLOAD,2023-09-24 02:43:16,15.08840032,0.0001327,53.216,173.258,93.6425,266.4719,0.00014153,1.965e-05,0.0,0 STARLINK-4557,1 53432U 22097AW  23267.11339032  .00001965  00000-0  14153-3 0  9997,2 53432  53.2160 173.2580 0001327  93.6425 266.4719 15.08840032 62806,6917.88,95.438,540.663,538.827,0.0
53432.0,STARLINK-4557,PAYLOAD,2023-09-24 21:47:54,15.08843994,0.0001378,53.216,169.6926,100.6924,259.4224,0.00024963,3.688e-05,0.0,0 STARLINK-4557,1 53432U 22097AW  23267.90827178  .00003688  00000-0  24963-3 0  9991,2 53432  53.2160 169.6926 0001378 100.6924 259.4224 15.08843994 63408,6917.868,95.437,540.686,538.78,0.0
53432.0,STARLINK-4557,PAYLOAD,2023-09-25 10:30:59,15.08858372,0.0001565,53.2169,167.3137,78.3668,281.7499,0.0009191,0.00014377,0.0,0 STARLINK-4557,1 53432U 22097AW  23268.43818988  .00014377  00000-0  91910-3 0  9992,2 53432  53.2169 167.3137 0001565  78.3668 281.7499 15.08858372 63486,6917.824,95.436,540.772,538.607,0.0
53432.0,STARLINK-4557,PAYLOAD,2023-09-25 21:38:41,15.08861618,0.0001648,53.2174,165.2307,77.7537,282.364,0.00045366,6.944e-05,0.0,0 STARLINK-4557,1 53432U 22097AW  23268.90186375  .00006944  00000-0  45366-3 0  9997,2 53432  53.2174 165.2307 0001648  77.7537 282.3640 15.08861618 63558,6917.814,95.436,540.819,538.539,0.0
53432.0,STARLINK-4557,PAYLOAD,2023-09-26 00:49:26,15.08873146,0.0001283,53.2161,164.6356,89.8135,270.3004,0.00077867,0.00012137,0.0,0 STARLINK-4557,1 53432U 22097AW  23269.03433804  .00012137  00000-0  77867-3 0  9996,2 53432  53.2161 164.6356 0001283  89.8135 270.3004 15.08873146 63576,6917.779,95.435,540.532,538.757,0.0
53432.0,STARLINK-4557,PAYLOAD,2023-09-26 21:29:28,15.08835192,0.0001578,53.217,160.7705,77.1324,282.9844,-0.00010008,-1.88e-05,0.0,0 STARLINK-4557,1 53432U 22097AW  23269.89546911 -.00001880  00000-0 -10008-3 0  9993,2 53432  53.2170 160.7705 0001578  77.1324 282.9844 15.08835192 63703,6917.895,95.438,540.852,538.668,0.0
53432.0,STARLINK-4557,PAYLOAD,2023-09-27 03:51:00,15.08841713,0.0001436,53.2168,159.5812,93.454,266.6616,7.0576e-05,8.35e-06,0.0,0 STARLINK-4557,1 53432U 22097AW  23270.16042755  .00000835  00000-0  70576-4 0  9996,2 53432  53.2168 159.5812 0001436  93.4540 266.6616 15.08841713 63262,6917.875,95.437,540.734,538.747,0.0
53432.0,STARLINK-4557,PAYLOAD,2023-09-27 13:23:20,15.08820617,0.0001569,53.2158,157.8023,59.2698,300.8449,-0.00018143,-3.173e-05,0.0,0 STARLINK-4557,1 53432U 22097AW  23270.55788015 -.00003173  00000-0 -18143-3 0  9996,2 53432  53.2158 157.8023 0001569  59.2698 300.8449 15.08820617 63802,6917.94,95.439,540.89,538.719,0.0
53432.0,STARLINK-4557,PAYLOAD,2023-09-27 19:44:53,15.08823682,0.0001348,53.2162,156.6135,62.8263,297.2866,4.6136e-05,4.46e-06,0.0,0 STARLINK-4557,1 53432U 22097AW  23270.82284197  .00000446  00000-0  46136-4 0  9990,2 53432  53.2162 156.6135 0001348  62.8263 297.2866 15.08823682 63369,6917.93,95.439,540.728,538.863,0.0
53432.0,STARLINK-4557,PAYLOAD,2023-09-27 22:55:40,15.08818627,0.0001444,53.2159,156.019,62.9816,297.1324,0.00035247,5.323e-05,0.0,0 STARLINK-4557,1 53432U 22097AW  23270.95532495  .00005323  00000-0  35247-3 0  9990,2 53432  53.2159 156.0190 0001444  62.9816 297.1324 15.08818627 63868,6917.946,95.439,540.81,538.812,0.0
53432.0,STARLINK-4557,PAYLOAD,2023-09-28 16:24:54,15.08845596,0.0001525,53.2159,152.7473,57.1437,302.9702,0.00072525,0.00011275,0.0,0 STARLINK-4557,1 53432U 22097AW  23271.68396557  .00011275  00000-0  72525-3 0  9991,2 53432  53.2159 152.7473 0001525  57.1437 302.9702 15.08845596 63499,6917.863,95.437,540.783,538.673,0.0
53432.0,STARLINK-4557,PAYLOAD,2023-09-28 21:11:03,15.08851517,0.0001434,53.2163,151.8547,58.8433,301.2699,0.0007837,0.00012211,0.0,0 STARLINK-4557,1 53432U 22097AW  23271.88268387  .00012211  00000-0  78370-3 0  9997,2 53432  53.2163 151.8547 0001434  58.8433 301.2699 15.08851517 64004,6917.845,95.437,540.702,538.718,0.0
53432.0,STARLINK-4557,PAYLOAD,2023-09-29 22:37:13,15.08859501,0.0001281,53.2161,147.095,75.0465,285.0669,0.00041631,6.347e-05,0.0,0 STARLINK-4557,1 53432U 22097AW  23272.94251422  .00006347  00000-0  41631-3 0  9990,2 53432  53.2161 147.0950 0001281  75.0465 285.0669 15.08859501 63683,6917.821,95.436,540.572,538.8,0.0
